{"type": "FeatureCollection", "features": [ {"type": "Feature", "properties": {"norad_id": 61186, "name": "BEIDOU-3 M25 (C47)", "group": "beidou", "lat": -48.83116859268999, "lon": -177.4496645881205, "alt_km": 21524.310604673057, "timestamp": "2025-12-23T16:57:12.617801+00:00", "meta": {"OBJECT_NAME": "BEIDOU-3 M25 (C47)", "OBJECT_ID": "2024-168B", "EPOCH": "2025-12-22T12:27:11.391840", "MEAN_MOTION": 1.86230177, "ECCENTRICITY": 0.0005446, "INCLINATION": 54.6334, "RA_OF_ASC_NODE": 308.3821, "ARG_OF_PERICENTER": 299.7491, "MEAN_ANOMALY": 231.473, "EPHEMERIS_TYPE": 0, "CLASSIFICATION_TYPE": "U", "NORAD_CAT_ID": 61186, "ELEMENT_SET_NO": 999, "REV_AT_EPOCH": 849, "BSTAR": 0, "MEAN_MOTION_DOT": -5.7e-07, "MEAN_MOTION_DDOT": 0}, "tle": {"line1": "1 61186U 24168B   25356.51888185 -.00000057  00000+0  00000+0 0  9999", "line2": "2 61186  54.6334 308.3821 0005446 299.7491 231.4730  1.86230177  8490"}}, "geometry": {"type": "Point", "coordinates": [-177.4496645881205, -48.83116859268999]}}, {"type": "Feature", "properties": {"norad_id": 61187, "name": "BEIDOU-3 M27 (C49)", "group": "beidou", "lat": 18.069090634283068, "lon": -38.308456642738825, "alt_km": 21520.679648224934, "timestamp": "2025-12-23T16:57:12.617812+00:00", "meta": {"OBJECT_NAME": "BEIDOU-3 M27 (C49)", "OBJECT_ID": "2024-168C", "EPOCH": "2025-12-22T20:59:38.843232", "MEAN_MOTION": 1.8623031, "ECCENTRICITY": 0.0002551, "INCLINATION": 54.6286, "RA_OF_ASC_NODE": 308.3534, "ARG_OF_PERICENTER": 340.6202, "MEAN_ANOMALY": 204.1443, "EPHEMERIS_TYPE": 0, "CLASSIFICATION_TYPE": "U", "NORAD_CAT_ID": 61187, "ELEMENT_SET_NO": 999, "REV_AT_EPOCH": 597, "BSTAR": 0, "MEAN_MOTION_DOT": -5.6e-07, "MEAN_MOTION_DDOT": 0}, "tle": {"line1": "1 61187U 24168C   25356.87475513 -.00000056  00000+0  00000+0 0  9995", "line2": "2 61187  54.6286 308.3534 0002551 340.6202 204.1443  1.86230310  5975"}}, "geometry": {"type": "Point", "coordinates": [-38.308456642738825, 18.069090634283068]}}]}